0 COSMOS 1035
1 11044U 78091B   13283.16187338 -.00000028  00000-0 -76027-4 0  3609
2 11044 074.0365 191.0342 0048456 103.5857 047.9589 12.55635889605277
0 COSMOS 1035
1 11044U 78091B   13285.46353164  .00000003  00000-0  11520-3 0  3614
2 11044 074.0363 187.9447 0048432 100.0452 012.1635 12.55635533605566
0 COSMOS 1035
1 11044U 78091B   13287.84302531  .00000022  00000-0  23028-3 0  3628
2 11044 074.0359 184.7509 0048455 096.3819 328.2082 12.55635449605860
0 COSMOS 1035
1 11044U 78091B   13290.17608348  .00000016  00000-0  19634-3 0  3635
2 11044 074.0354 181.6194 0048457 092.7832 074.3556 12.55635669606150
0 COSMOS 1035
1 11044U 78091B   13292.39560310 -.00000014  00000-0  11255-4 0  3649
2 11044 074.0350 178.6403 0048478 089.3546 027.2794 12.55636004606438
0 COSMOS 1035
1 11044U 78091B   13294.77559419 -.00000028  00000-0 -75942-4 0  3651
2 11044 074.0348 175.4455 0048504 085.6897 345.5758 12.55636193606733
